start=new Date('2022-04-11T00:00:00.000Z').valueOf();
sats=[{"RCS_SIZE":"LARGE","MEAN_MOTION_DOT":"0.00001960","NORAD_CAT_ID":"46349","PERIOD":"95.592","PERIAPSIS":"546.056","ELEMENT_SET_NO":"999","GP_ID":"200940160","APOAPSIS":"548.382","MEAN_MOTION":"15.06398250","CENTER_NAME":"EARTH","REF_FRAME":"TEME","DECAY_DATE":null,"TIME_SYSTEM":"UTC","TLE_LINE1":"1 46349U 20062AA  22100.81325103  .00001960  00000-0  15045-3 0  9998","BSTAR":"0.00015045000000","REV_AT_EPOCH":"8957","RA_OF_ASC_NODE":"266.0985","SITE":"AFETR","COUNTRY_CODE":"US","SEMIMAJOR_AXIS":"6925.354","CLASSIFICATION_TYPE":"U","EPHEMERIS_TYPE":"0","MEAN_MOTION_DDOT":"0.0000000000000","LAUNCH_DATE":"2020-09-03","ECCENTRICITY":"0.00016790","TLE_LINE2":"2 46349  53.0540 266.0985 0001679  52.7158 307.3984 15.06398250 89574","EPOCH":"2022-04-10T19:31:04.888992","OBJECT_NAME":"STARLINK-1575","ARG_OF_PERICENTER":"52.7158","OBJECT_ID":"2020-062AA","FILE":"3396586","MEAN_ELEMENT_THEORY":"SGP4","OBJECT_TYPE":"PAYLOAD","MEAN_ANOMALY":"307.3984","INCLINATION":"53.0540"},{"CLASSIFICATION_TYPE":"U","MEAN_MOTION_DDOT":"0.0000000000000","EPHEMERIS_TYPE":"0","ARG_OF_PERICENTER":"65.5513","OBJECT_NAME":"STARLINK-1617","TLE_LINE2":"2 46350  53.0551 310.9644 0001433  65.5513 294.5625 15.06405463 89130","EPOCH":"2022-04-10T20:15:32.376672","ECCENTRICITY":"0.00014330","LAUNCH_DATE":"2020-09-03","INCLINATION":"53.0551","OBJECT_TYPE":"PAYLOAD","MEAN_ELEMENT_THEORY":"SGP4","MEAN_ANOMALY":"294.5625","OBJECT_ID":"2020-062AB","FILE":"3396291","TIME_SYSTEM":"UTC","DECAY_DATE":null,"RA_OF_ASC_NODE":"310.9644","REV_AT_EPOCH":"8913","BSTAR":"0.00012372000000","TLE_LINE1":"1 46350U 20062AB  22100.84412473  .00001562  00000-0  12372-3 0  9998","SITE":"AFETR","SEMIMAJOR_AXIS":"6925.332","COUNTRY_CODE":"US","GP_ID":"200912355","MEAN_MOTION":"15.06405463","APOAPSIS":"548.189","CENTER_NAME":"EARTH","REF_FRAME":"TEME","MEAN_MOTION_DOT":"0.00001562","RCS_SIZE":"LARGE","NORAD_CAT_ID":"46350","ELEMENT_SET_NO":"999","PERIAPSIS":"546.204","PERIOD":"95.592"},{"RCS_SIZE":"LARGE","MEAN_MOTION_DOT":"0.00001015","NORAD_CAT_ID":"46351","PERIAPSIS":"546.098","PERIOD":"95.592","ELEMENT_SET_NO":"999","GP_ID":"200912334","APOAPSIS":"548.314","MEAN_MOTION":"15.06402366","CENTER_NAME":"EARTH","REF_FRAME":"TEME","DECAY_DATE":null,"TIME_SYSTEM":"UTC","BSTAR":"0.00008703600000","TLE_LINE1":"1 46351U 20062AC  22100.84966001  .00001015  00000-0  87036-4 0  9993","REV_AT_EPOCH":"8941","RA_OF_ASC_NODE":"290.9193","SITE":"AFETR","COUNTRY_CODE":"US","SEMIMAJOR_AXIS":"6925.341","CLASSIFICATION_TYPE":"U","MEAN_MOTION_DDOT":"0.0000000000000","EPHEMERIS_TYPE":"0","LAUNCH_DATE":"2020-09-03","ECCENTRICITY":"0.00016000","OBJECT_NAME":"STARLINK-1646","TLE_LINE2":"2 46351  53.0543 290.9193 0001600  55.2637 304.8503 15.06402366 89417","EPOCH":"2022-04-10T20:23:30.624864","ARG_OF_PERICENTER":"55.2637","OBJECT_ID":"2020-062AC","FILE":"3396290","OBJECT_TYPE":"PAYLOAD","MEAN_ELEMENT_THEORY":"SGP4","INCLINATION":"53.0543","MEAN_ANOMALY":"304.8503"},{"LAUNCH_DATE":"2020-09-03","ECCENTRICITY":"0.00013700","EPOCH":"2022-04-10T19:56:58.077600","TLE_LINE2":"2 46352  53.0551 291.0060 0001370  66.2037 293.9096 15.06403503 89411","OBJECT_NAME":"STARLINK-1653","ARG_OF_PERICENTER":"66.2037","FILE":"3396293","OBJECT_ID":"2020-062AD","OBJECT_TYPE":"PAYLOAD","MEAN_ELEMENT_THEORY":"SGP4","INCLINATION":"53.0551","MEAN_ANOMALY":"293.9096","CLASSIFICATION_TYPE":"U","EPHEMERIS_TYPE":"0","MEAN_MOTION_DDOT":"0.0000000000000","SITE":"AFETR","COUNTRY_CODE":"US","SEMIMAJOR_AXIS":"6925.338","DECAY_DATE":null,"TIME_SYSTEM":"UTC","TLE_LINE1":"1 46352U 20062AD  22100.83122775  .00001321  00000-0  10756-3 0  9999","BSTAR":"0.00010756000000","REV_AT_EPOCH":"8941","RA_OF_ASC_NODE":"291.0060","CENTER_NAME":"EARTH","REF_FRAME":"TEME","GP_ID":"200912878","APOAPSIS":"548.152","MEAN_MOTION":"15.06403503","PERIOD":"95.592","PERIAPSIS":"546.254","ELEMENT_SET_NO":"999","RCS_SIZE":"LARGE","MEAN_MOTION_DOT":"0.00001321","NORAD_CAT_ID":"46352"},{"CENTER_NAME":"EARTH","REF_FRAME":"TEME","GP_ID":"200939660","MEAN_MOTION":"15.06408194","APOAPSIS":"548.262","ELEMENT_SET_NO":"999","PERIOD":"95.592","PERIAPSIS":"546.115","RCS_SIZE":"LARGE","MEAN_MOTION_DOT":"0.00004048","NORAD_CAT_ID":"46353","ECCENTRICITY":"0.00015500","LAUNCH_DATE":"2020-09-03","ARG_OF_PERICENTER":"67.0591","OBJECT_NAME":"STARLINK-1656","TLE_LINE2":"2 46353  53.0551 311.0310 0001550  67.0591 293.0562 15.06408194 88944","EPOCH":"2022-04-10T19:54:18.300672","OBJECT_ID":"2020-062AE","FILE":"3396586","OBJECT_TYPE":"PAYLOAD","MEAN_ELEMENT_THEORY":"SGP4","MEAN_ANOMALY":"293.0562","INCLINATION":"53.0551","CLASSIFICATION_TYPE":"U","EPHEMERIS_TYPE":"0","MEAN_MOTION_DDOT":"0.0000000000000","SITE":"AFETR","COUNTRY_CODE":"US","SEMIMAJOR_AXIS":"6925.323","TIME_SYSTEM":"UTC","DECAY_DATE":null,"BSTAR":"0.00029045000000","TLE_LINE1":"1 46353U 20062AE  22100.82937848  .00004048  00000-0  29045-3 0  9994","REV_AT_EPOCH":"8894","RA_OF_ASC_NODE":"311.0310"},{"ELEMENT_SET_NO":"999","PERIOD":"95.592","PERIAPSIS":"546.133","RCS_SIZE":"LARGE","MEAN_MOTION_DOT":"0.00001479","NORAD_CAT_ID":"46354","CENTER_NAME":"EARTH","REF_FRAME":"TEME","GP_ID":"200938408","MEAN_MOTION":"15.06400929","APOAPSIS":"548.288","SITE":"AFETR","COUNTRY_CODE":"US","SEMIMAJOR_AXIS":"6925.346","TIME_SYSTEM":"UTC","DECAY_DATE":null,"BSTAR":"0.00011816000000","TLE_LINE1":"1 46354U 20062AF  22100.88467842  .00001479  00000-0  11816-3 0  9995","REV_AT_EPOCH":"8895","RA_OF_ASC_NODE":"310.7627","ECCENTRICITY":"0.00015560","LAUNCH_DATE":"2020-09-03","ARG_OF_PERICENTER":"57.0848","OBJECT_NAME":"STARLINK-1657","TLE_LINE2":"2 46354  53.0552 310.7627 0001556  57.0848 303.0290 15.06400929 88952","EPOCH":"2022-04-10T21:13:56.215488","OBJECT_ID":"2020-062AF","FILE":"3396586","OBJECT_TYPE":"PAYLOAD","MEAN_ELEMENT_THEORY":"SGP4","MEAN_ANOMALY":"303.0290","INCLINATION":"53.0552","CLASSIFICATION_TYPE":"U","EPHEMERIS_TYPE":"0","MEAN_MOTION_DDOT":"0.0000000000000"},{"CLASSIFICATION_TYPE":"U","MEAN_MOTION_DDOT":"0.0000000000000","EPHEMERIS_TYPE":"0","ARG_OF_PERICENTER":"68.1106","OBJECT_NAME":"STARLINK-1661","TLE_LINE2":"2 46355  53.0551 310.8913 0001511  68.1106 292.0043 15.06409441 88953","EPOCH":"2022-04-10T20:36:46.979712","ECCENTRICITY":"0.00015110","LAUNCH_DATE":"2020-09-03","INCLINATION":"53.0551","OBJECT_TYPE":"PAYLOAD","MEAN_ELEMENT_THEORY":"SGP4","MEAN_ANOMALY":"292.0043","OBJECT_ID":"2020-062AG","FILE":"3396586","TIME_SYSTEM":"UTC","DECAY_DATE":null,"REV_AT_EPOCH":"8895","RA_OF_ASC_NODE":"310.8913","BSTAR":"0.00026510000000","TLE_LINE1":"1 46355U 20062AG  22100.85887708  .00003670  00000-0  26510-3 0  9992","SITE":"AFETR","SEMIMAJOR_AXIS":"6925.320","COUNTRY_CODE":"US","GP_ID":"200938658","MEAN_MOTION":"15.06409441","APOAPSIS":"548.231","CENTER_NAME":"EARTH","REF_FRAME":"TEME","MEAN_MOTION_DOT":"0.00003670","RCS_SIZE":"LARGE","NORAD_CAT_ID":"46355","ELEMENT_SET_NO":"999","PERIOD":"95.592","PERIAPSIS":"546.138"},{"ECCENTRICITY":"0.00014430","LAUNCH_DATE":"2020-09-03","ARG_OF_PERICENTER":"59.1029","OBJECT_NAME":"STARLINK-1665","TLE_LINE2":"2 46356  53.0546 310.8326 0001443  59.1029 301.0102 15.06411532 88955","EPOCH":"2022-04-10T20:52:41.498400","FILE":"3396586","OBJECT_ID":"2020-062AH","OBJECT_TYPE":"PAYLOAD","MEAN_ELEMENT_THEORY":"SGP4","INCLINATION":"53.0546","MEAN_ANOMALY":"301.0102","CLASSIFICATION_TYPE":"U","EPHEMERIS_TYPE":"0","MEAN_MOTION_DDOT":"0.0000000000000","SITE":"AFETR","COUNTRY_CODE":"US","SEMIMAJOR_AXIS":"6925.313","TIME_SYSTEM":"UTC","DECAY_DATE":null,"TLE_LINE1":"1 46356U 20062AH  22100.86992475  .00001189  00000-0  98702-4 0  9998","BSTAR":"0.00009870200000","RA_OF_ASC_NODE":"310.8326","REV_AT_EPOCH":"8895","CENTER_NAME":"EARTH","REF_FRAME":"TEME","GP_ID":"200939910","MEAN_MOTION":"15.06411532","APOAPSIS":"548.178","ELEMENT_SET_NO":"999","PERIAPSIS":"546.179","PERIOD":"95.591","RCS_SIZE":"LARGE","MEAN_MOTION_DOT":"0.00001189","NORAD_CAT_ID":"46356"},{"APOAPSIS":"548.318","MEAN_MOTION":"15.06410062","GP_ID":"200940161","REF_FRAME":"TEME","CENTER_NAME":"EARTH","NORAD_CAT_ID":"46357","RCS_SIZE":"LARGE","MEAN_MOTION_DOT":"0.00002687","PERIOD":"95.592","PERIAPSIS":"546.047","ELEMENT_SET_NO":"999","MEAN_MOTION_DDOT":"0.0000000000000","EPHEMERIS_TYPE":"0","CLASSIFICATION_TYPE":"U","OBJECT_ID":"2020-062AJ","FILE":"3396586","OBJECT_TYPE":"PAYLOAD","MEAN_ELEMENT_THEORY":"SGP4","INCLINATION":"53.0532","MEAN_ANOMALY":"304.6606","LAUNCH_DATE":"2020-09-03","ECCENTRICITY":"0.00016400","TLE_LINE2":"2 46357  53.0532 291.1440 0001640  55.4537 304.6606 15.06410062 89227","EPOCH":"2022-04-10T19:14:29.986944","OBJECT_NAME":"STARLINK-1666","ARG_OF_PERICENTER":"55.4537","BSTAR":"0.00019914000000","TLE_LINE1":"1 46357U 20062AJ  22100.80173596  .00002687  00000-0  19914-3 0  9999","REV_AT_EPOCH":"8922","RA_OF_ASC_NODE":"291.1440","DECAY_DATE":null,"TIME_SYSTEM":"UTC","COUNTRY_CODE":"US","SEMIMAJOR_AXIS":"6925.318","SITE":"AFETR"},{"REF_FRAME":"TEME","CENTER_NAME":"EARTH","MEAN_MOTION":"15.06404620","APOAPSIS":"548.453","GP_ID":"200938909","ELEMENT_SET_NO":"999","PERIAPSIS":"545.946","PERIOD":"95.592","NORAD_CAT_ID":"46358","MEAN_MOTION_DOT":"0.00003913","RCS_SIZE":"LARGE","OBJECT_TYPE":"PAYLOAD","MEAN_ANOMALY":"308.0296","MEAN_ELEMENT_THEORY":"SGP4","INCLINATION":"53.0540","FILE":"3396586","OBJECT_ID":"2020-062AK","ARG_OF_PERICENTER":"52.0857","OBJECT_NAME":"STARLINK-1690","TLE_LINE2":"2 46358  53.0540 310.9263 0001810  52.0857 308.0296 15.06404620 88952","EPOCH":"2022-04-10T20:20:51.466560","ECCENTRICITY":"0.00018100","LAUNCH_DATE":"2020-09-03","EPHEMERIS_TYPE":"0","MEAN_MOTION_DDOT":"0.0000000000000","CLASSIFICATION_TYPE":"U","SEMIMAJOR_AXIS":"6925.334","COUNTRY_CODE":"US","SITE":"AFETR","REV_AT_EPOCH":"8895","RA_OF_ASC_NODE":"310.9263","BSTAR":"0.00028140000000","TLE_LINE1":"1 46358U 20062AK  22100.84781790  .00003913  00000-0  28140-3 0  9999","TIME_SYSTEM":"UTC","DECAY_DATE":null}];
